-- Insert statements for users table
INSERT INTO users (username, first_name, last_name, email, hashed_password, role, is_active) VALUES
    ('jdoe', 'John', 'Doe', 'jdoe@example.com', '$2a$12$1n4YVOWG/pP6nBaQ3q/lg.Wy/fwMbaXncmJ.zAIvs0oYBnxKn5fYW', 'admin', TRUE),
    ('asmith', 'Alice', 'Smith', 'asmith@example.com', '$2a$12$1n4YVOWG/pP6nBaQ3q/lg.Wy/fwMbaXncmJ.zAIvs0oYBnxKn5fYW', 'admin', TRUE),
    ('bwayne', 'Bruce', 'Wayne', 'bwayne@example.com', '$2a$12$1n4YVOWG/pP6nBaQ3q/lg.Wy/fwMbaXncmJ.zAIvs0oYBnxKn5fYW', 'viewer', FALSE),
    ('ckent', 'Clark', 'Kent', 'ckent@example.com', '$2a$12$1n4YVOWG/pP6nBaQ3q/lg.Wy/fwMbaXncmJ.zAIvs0oYBnxKn5fYW', 'admin', TRUE),
    ('dprince', 'Diana', 'Prince', 'dprince@example.com', '$2a$12$1n4YVOWG/pP6nBaQ3q/lg.Wy/fwMbaXncmJ.zAIvs0oYBnxKn5fYW', 'admin', TRUE)
;

-- Insert statements for satellite table
INSERT INTO satellite (id, satellite_name, tle_line1, tle_line2, storage_capacity, power_capacity, fov_max, fov_min, is_illuminated, under_outage) VALUES
    (1, 'SOSO-1', '1 00001U          23274.66666667  .00000000  00000-0  00000-0 0 00001', '2 00001 097.3597 167.6789 0009456 299.5645 340.3650 15.25701051000010', 500.0, 1000.0, 45.0, 10.0, TRUE, FALSE),
    (2, 'SOSO-2', '1 00002U          23274.66666667 -.00000000  00000-0  00000-0 0 00003', '2 00002 097.4451 167.7017 0017417 313.0688 199.0918 15.16151277000016', 500.0, 1000.0, 45.0, 10.0, TRUE, FALSE),
    (3, 'SOSO-3', '1 00003U          23274.66666667  .00000000  00000-0  00000-0 0 00003', '2 00003 097.4153 167.6514 0009336 322.4617 181.5409 15.20925385000019', 500.0, 1000.0, 45.0, 10.0, TRUE, FALSE),
    (4, 'SOSO-4', '1 00004U          23274.66666667  .00000000  00000-0  00000-0 0 00004', '2 00004 097.4153 167.6514 0009339 322.4652 253.5376 15.20925382000012', 500.0, 1000.0, 45.0, 10.0, TRUE, FALSE),
    (5, 'SOSO-5', '1 00005U          23274.66666667  .00000000  00000-0  00000-0 0 00005', '2 00005 097.4450 167.7015 0002739 252.0353 116.1326 15.16151280000015', 500.0, 1000.0, 45.0, 10.0, TRUE, FALSE),
    (6, 'Hubble', '1 20580U 90037B   22345.91473380  .00000210  00000-0  10000-3 0  9990', '2 20580  28.4710  32.5128 0002550  87.5643 272.6629 14.34320633134567', 500.0, 1000.0, 45.0, 10.0, TRUE, FALSE),
    (7, 'ISS', '1 25544U 98067A   22345.57659722  .00001532  00000-0  32904-4 0  9992', '2 25544  51.6451 140.1420 0007106  45.2510  90.7513 15.49507138336609', 2000.0, 5000.0, 60.0, 15.0, TRUE, FALSE),
    (8, 'Landsat-8', '1 39084U 13008A   22345.50159722  .00000067  00000-0  12345-4 0  9997', '2 39084  98.2071  50.2498 0001430  98.3528 261.7564 14.57117234123456', 1000.0, 1500.0, 50.0, 12.0, FALSE, FALSE),
    (9, 'Terra', '1 25994U 99068A   22345.89201289  .00000123  00000-0  45678-5 0  9998', '2 25994  98.2098  70.3512 0001756  102.3567  257.6489 14.57198333123456', 800.0, 1200.0, 55.0, 14.0, FALSE, TRUE),
    (10, 'Aqua', '1 27424U 02022A   22345.78034567  .00000178  00000-0  56789-6 0  9993', '2 27424  98.2097  80.5412 0001612  110.7892  249.4561 14.57189234123456', 900.0, 1300.0, 52.0, 13.0, TRUE, FALSE)
;

-- Insert statements for ground_station table
INSERT INTO ground_station (id, ground_station_name, latitude, longitude, elevation, send_mask, receive_mask, uplink_rate, downlink_rate, under_outage) VALUES
    (1, 'Inuvik', 68.3195, -133.549, 102.5, 5.0, 5.0, 40000, 100000000, FALSE),
    (2, 'Prince Albert', 53.2124, -105.934, 490.3, 5.0, 5.0, 40000, 100000000, FALSE),
    (3, 'Gatineau', 45.5846, -75.8083, 240.1, 5.0, 5.0, 40000, 100000000, FALSE),
    (4, 'Houston Station', 29.5623, -95.0830, 10.0, 5.0, 5.0, 100.0, 200.0, FALSE),
    (5, 'Canberra Station', -35.4011, 148.9819, 700.0, 10.0, 10.0, 150.0, 250.0, FALSE),
    (6, 'Madrid Station', 40.4310, -4.2485, 700.0, 8.0, 8.0, 120.0, 220.0, FALSE),
    (7, 'Goldstone Station', 35.4259, -116.8897, 1000.0, 12.0, 12.0, 180.0, 280.0, TRUE),
    (8, 'Santiago Station', -33.4521, -70.6769, 500.0, 7.0, 7.0, 130.0, 230.0, FALSE)
;

-- Insert statements for mission table
INSERT INTO mission (id, mission_name, mission_start, mission_end) VALUES
    (1, 'Apollo 11', '1969-07-16 13:32:00', '1969-07-24 16:50:35'),
    (2, 'Mars Rover Curiosity', '2011-11-26 15:02:00', '2011-11-27 15:02:00'),
    (3, 'Hubble Servicing Mission 4', '2009-05-11 18:01:00', '2009-05-24 15:57:00'),
    (4, 'Voyager 1 Launch', '1977-09-05 12:56:00', '1979-09-05 12:56:00'),
    (5, 'James Webb Space Telescope Deployment', '2021-12-25 12:20:00', '2024-12-25 12:20:00')
;

INSERT INTO image_request (image_name, mission_id, latitude, longitude, priority, image_type, image_start_time, image_end_time, delivery_time) VALUES
	('image_001.jpg', 1, -67.77104224249344, 92.34958821375841, 1, 'Medium', '2023-10-02 03:23:24', '2023-10-02 05:16:23', '2023-10-02 11:16:23')
	,('image_002.jpg', 1, 63.29244339244502, 157.91922070394065, 2, 'Medium', '2023-10-02 22:11:11', '2023-10-02 23:11:11', '2023-10-03 06:11:11')
	,('image_003.jpg', 1, -23.80274879639485, 21.17743677279674, 3, 'Medium', '2023-10-02 08:21:03', '2023-10-02 10:16:28', '2023-10-02 18:16:28')
	,('image_004.jpg', 1, 48.945248091893376, 42.679348007190555, 3, 'Medium', '2023-10-02 19:13:31', '2023-10-02 20:13:31', '2023-10-03 02:13:31')
	,('image_005.jpg', 1, -16.59340532563253, -52.078879965586566, 2, 'High', '2023-10-02 00:11:39', '2023-10-02 04:30:52', '2023-10-02 09:30:52')
	,('image_006.jpg', 1, -80.3235817013175, -0.596147413168552, 2, 'Medium', '2023-10-02 12:12:13', '2023-10-02 16:05:21', '2023-10-02 20:05:21')
	,('image_007.jpg', 1, 82.90304264855507, -36.360562384988015, 3, 'High', '2023-10-02 04:35:58', '2023-10-02 05:35:58', '2023-10-02 10:35:58')
	,('image_008.jpg', 1, 82.97114823204316, -70.39458282390994, 1, 'High', '2023-10-02 06:44:14', '2023-10-02 07:44:14', '2023-10-02 12:44:14')
	,('image_009.jpg', 1, -69.49873270132683, 101.96386745668752, 3, 'High', '2023-10-02 05:14:52', '2023-10-02 06:14:52', '2023-10-02 13:14:52')
	,('image_010.jpg', 1, 48.394182268019165, 42.06833591738433, 1, 'Low', '2023-10-02 20:13:33', '2023-10-02 23:23:34', '2023-10-03 06:23:34')
	,('image_011.jpg', 1, 67.46385028093374, -88.38802968370197, 2, 'High', '2023-10-02 14:47:14', '2023-10-02 15:47:14', '2023-10-02 19:47:14')
	,('image_012.jpg', 1, 70.27039839341717, -157.02980291058805, 3, 'Low', '2023-10-02 09:56:13', '2023-10-02 10:56:13', '2023-10-02 15:56:13')
	,('image_013.jpg', 1, 71.98588354877347, 93.68445387864483, 1, 'High', '2023-10-02 16:52:39', '2023-10-02 17:52:39', '2023-10-03 01:52:39')
	,('image_014.jpg', 1, 67.45314277768784, -131.76491386884246, 1, 'High', '2023-10-02 08:15:30', '2023-10-02 11:13:47', '2023-10-02 17:13:47')
	,('image_015.jpg', 1, 47.190058309102966, -98.57980515208669, 2, 'Low', '2023-10-02 14:48:47', '2023-10-02 17:10:48', '2023-10-02 21:10:48')
	,('image_016.jpg', 1, 39.725341730062894, 43.83942527208069, 2, 'High', '2023-10-02 06:53:25', '2023-10-02 07:53:25', '2023-10-02 12:53:25')
	,('image_017.jpg', 1, 42.66121763855881, 59.358243254803284, 1, 'High', '2023-10-02 18:25:12', '2023-10-02 19:27:57', '2023-10-03 00:27:57')
	,('image_018.jpg', 1, 68.71721242209762, 22.834088587626695, 1, 'High', '2023-10-02 06:11:38', '2023-10-02 10:05:26', '2023-10-02 14:05:26')
	,('image_019.jpg', 1, -79.23422720423558, -5.783457446161464, 1, 'High', '2023-10-02 12:40:45', '2023-10-02 16:02:28', '2023-10-02 20:02:28')
	,('image_020.jpg', 1, 2.1450528578964025, 45.21082251852994, 3, 'Medium', '2023-10-02 19:19:28', '2023-10-02 21:52:27', '2023-10-03 04:52:27')
	,('image_021.jpg', 1, -15.785923105578263, -51.41075964418138, 2, 'High', '2023-10-02 13:19:44', '2023-10-02 17:29:17', '2023-10-02 22:29:17')
	,('image_022.jpg', 1, 33.30036233848307, 115.02902275327926, 2, 'Low', '2023-10-02 14:31:12', '2023-10-02 15:35:27', '2023-10-02 20:35:27')
	,('image_023.jpg', 1, 11.595146617382099, -15.176088711840322, 2, 'Medium', '2023-10-02 08:53:51', '2023-10-02 11:28:10', '2023-10-02 16:28:10')
	,('image_024.jpg', 1, -81.71344245876392, -34.07403905194715, 2, 'Medium', '2023-10-02 16:34:20', '2023-10-02 17:34:20', '2023-10-02 23:34:20')
	,('image_025.jpg', 1, 43.791469637841516, -79.36881121125167, 2, 'High', '2023-10-02 02:02:10', '2023-10-02 04:16:12', '2023-10-02 09:16:12')
	,('image_026.jpg', 1, 26.402491732745304, 37.61228166796815, 2, 'Low', '2023-10-02 19:42:48', '2023-10-02 22:31:29', '2023-10-03 03:31:29')
	,('image_027.jpg', 1, -78.29351833148614, 144.78072202979985, 3, 'Low', '2023-10-02 09:06:25', '2023-10-02 10:17:04', '2023-10-02 17:17:04')
	,('image_028.jpg', 1, 63.91413412710341, 10.153814183659506, 3, 'Low', '2023-10-02 22:44:26', '2023-10-02 23:44:26', '2023-10-03 04:44:26')
	,('image_029.jpg', 1, -54.45188657170134, -71.4554115739487, 3, 'Medium', '2023-10-02 01:15:27', '2023-10-02 02:43:21', '2023-10-02 09:43:21')
	,('image_030.jpg', 1, 67.69065873502396, -49.128337198357144, 1, 'Low', '2023-10-02 00:49:01', '2023-10-02 04:40:34', '2023-10-02 11:40:34')
	,('image_031.jpg', 1, -74.39926833257233, -71.61002775885405, 2, 'Low', '2023-10-02 00:51:48', '2023-10-02 01:51:48', '2023-10-02 05:51:48')
	,('image_032.jpg', 1, 9.923481391055773, -70.26691730322172, 3, 'Medium', '2023-10-02 14:40:27', '2023-10-02 15:40:27', '2023-10-02 22:40:27')
	,('image_033.jpg', 1, -83.1445290317954, 55.076008099359456, 1, 'Low', '2023-10-02 13:15:04', '2023-10-02 16:31:11', '2023-10-02 20:31:11')
	,('image_034.jpg', 1, -80.19666647177955, -99.71223652892196, 3, 'Low', '2023-10-02 19:49:38', '2023-10-02 21:13:40', '2023-10-03 04:13:40')
	,('image_035.jpg', 1, -30.05365881448531, 22.525942197468282, 3, 'Low', '2023-10-02 08:31:50', '2023-10-02 11:10:08', '2023-10-02 19:10:08')
	,('image_036.jpg', 1, 16.749882831435244, 103.02567971444051, 1, 'Low', '2023-10-02 14:40:50', '2023-10-02 17:01:14', '2023-10-02 23:01:14')
	,('image_037.jpg', 1, -77.22186989040948, 70.24442162525739, 3, 'High', '2023-10-02 13:05:09', '2023-10-02 16:50:06', '2023-10-02 23:50:06')
